start=new Date('2022-04-03T00:00:00.000Z').valueOf();
sats=[{"ARG_OF_PERICENTER":"52.0923","OBJECT_TYPE":"PAYLOAD","EPOCH":"2022-04-02T16:16:11.819712","MEAN_MOTION_DOT":"-0.00003477","NORAD_CAT_ID":"45747","LAUNCH_DATE":"2020-06-13","ELEMENT_SET_NO":"999","COUNTRY_CODE":"US","INCLINATION":"53.0542","CENTER_NAME":"EARTH","GP_ID":"200321045","FILE":"3385473","REF_FRAME":"TEME","MEAN_ANOMALY":"308.0220","SITE":"AFETR","CLASSIFICATION_TYPE":"U","RA_OF_ASC_NODE":"207.6148","APOAPSIS":"548.411","TLE_LINE1":"1 45747U 20038T   22092.67791458 -.00003477  00000-0 -21468-3 0  9999","OBJECT_ID":"2020-038T","OBJECT_NAME":"STARLINK-1506","PERIOD":"95.592","PERIAPSIS":"546.046","MEAN_MOTION":"15.06395100","EPHEMERIS_TYPE":"0","SEMIMAJOR_AXIS":"6925.364","DECAY_DATE":null,"ECCENTRICITY":"0.00017070","TIME_SYSTEM":"UTC","MEAN_MOTION_DDOT":"0.0000000000000","TLE_LINE2":"2 45747  53.0542 207.6148 0001707  52.0923 308.0220 15.06395100 99601","RCS_SIZE":"LARGE","BSTAR":"-0.00021468000000","MEAN_ELEMENT_THEORY":"SGP4","REV_AT_EPOCH":"9960"},{"SEMIMAJOR_AXIS":"6925.320","ECCENTRICITY":"0.00017170","DECAY_DATE":null,"EPHEMERIS_TYPE":"0","MEAN_MOTION":"15.06409287","PERIOD":"95.592","PERIAPSIS":"545.996","OBJECT_NAME":"STARLINK-1507","TLE_LINE1":"1 45748U 20038U   22092.79860249  .00007381  00000-0  51379-3 0  9998","OBJECT_ID":"2020-038U","BSTAR":"0.00051379000000","RCS_SIZE":"LARGE","MEAN_ELEMENT_THEORY":"SGP4","TLE_LINE2":"2 45748  53.0514 207.0690 0001717  65.9318 294.1850 15.06409287 99616","REV_AT_EPOCH":"9961","MEAN_MOTION_DDOT":"0.0000000000000","TIME_SYSTEM":"UTC","LAUNCH_DATE":"2020-06-13","INCLINATION":"53.0514","COUNTRY_CODE":"US","ELEMENT_SET_NO":"999","MEAN_MOTION_DOT":"0.00007381","EPOCH":"2022-04-02T19:09:59.255136","NORAD_CAT_ID":"45748","ARG_OF_PERICENTER":"65.9318","OBJECT_TYPE":"PAYLOAD","RA_OF_ASC_NODE":"207.0690","CLASSIFICATION_TYPE":"U","APOAPSIS":"548.374","MEAN_ANOMALY":"294.1850","REF_FRAME":"TEME","SITE":"AFETR","CENTER_NAME":"EARTH","GP_ID":"200321796","FILE":"3385473"},{"TLE_LINE2":"2 45750  53.0534 187.8424 0001425  56.6007 303.5118 15.06391874 99882","RCS_SIZE":"LARGE","BSTAR":"-0.00024295000000","MEAN_ELEMENT_THEORY":"SGP4","REV_AT_EPOCH":"9988","TIME_SYSTEM":"UTC","MEAN_MOTION_DDOT":"0.0000000000000","EPHEMERIS_TYPE":"0","MEAN_MOTION":"15.06391874","SEMIMAJOR_AXIS":"6925.373","DECAY_DATE":null,"ECCENTRICITY":"0.00014250","TLE_LINE1":"1 45750U 20038W   22092.62815473 -.00003897  00000-0 -24295-3 0  9999","OBJECT_ID":"2020-038W","OBJECT_NAME":"STARLINK-1391","PERIAPSIS":"546.252","PERIOD":"95.593","MEAN_ANOMALY":"303.5118","REF_FRAME":"TEME","SITE":"AFETR","CLASSIFICATION_TYPE":"U","RA_OF_ASC_NODE":"187.8424","APOAPSIS":"548.225","CENTER_NAME":"EARTH","GP_ID":"200320044","FILE":"3385473","EPOCH":"2022-04-02T15:04:32.568672","MEAN_MOTION_DOT":"-0.00003897","NORAD_CAT_ID":"45750","LAUNCH_DATE":"2020-06-13","ELEMENT_SET_NO":"999","INCLINATION":"53.0534","COUNTRY_CODE":"US","ARG_OF_PERICENTER":"56.6007","OBJECT_TYPE":"PAYLOAD"},{"OBJECT_TYPE":"PAYLOAD","ARG_OF_PERICENTER":"61.6166","ELEMENT_SET_NO":"999","COUNTRY_CODE":"US","INCLINATION":"53.0556","LAUNCH_DATE":"2020-06-13","NORAD_CAT_ID":"45751","EPOCH":"2022-04-02T13:23:42.975456","MEAN_MOTION_DOT":"-0.00001045","GP_ID":"200320294","FILE":"3385473","CENTER_NAME":"EARTH","APOAPSIS":"548.304","CLASSIFICATION_TYPE":"U","RA_OF_ASC_NODE":"188.1537","SITE":"AFETR","MEAN_ANOMALY":"298.4978","REF_FRAME":"TEME","OBJECT_NAME":"STARLINK-1464","PERIAPSIS":"546.176","PERIOD":"95.593","OBJECT_ID":"2020-038X","TLE_LINE1":"1 45751U 20038X   22092.55813629 -.00001045  00000-0 -51293-4 0  9995","DECAY_DATE":null,"ECCENTRICITY":"0.00015360","SEMIMAJOR_AXIS":"6925.375","MEAN_MOTION":"15.06391388","EPHEMERIS_TYPE":"0","MEAN_MOTION_DDOT":"0.0000000000000","TIME_SYSTEM":"UTC","REV_AT_EPOCH":"9987","TLE_LINE2":"2 45751  53.0556 188.1537 0001536  61.6166 298.4978 15.06391388 99876","MEAN_ELEMENT_THEORY":"SGP4","RCS_SIZE":"LARGE","BSTAR":"-0.00005129300000"},{"GP_ID":"200321546","FILE":"3385473","CENTER_NAME":"EARTH","SITE":"AFETR","REF_FRAME":"TEME","MEAN_ANOMALY":"332.4679","APOAPSIS":"341.244","RA_OF_ASC_NODE":"273.3174","CLASSIFICATION_TYPE":"U","OBJECT_TYPE":"PAYLOAD","ARG_OF_PERICENTER":"27.6456","NORAD_CAT_ID":"45752","MEAN_MOTION_DOT":"-0.00007034","EPOCH":"2022-04-02T17:52:01.040736","COUNTRY_CODE":"US","INCLINATION":"52.9991","ELEMENT_SET_NO":"999","LAUNCH_DATE":"2020-06-13","TIME_SYSTEM":"UTC","MEAN_MOTION_DDOT":"0.0000000000000","REV_AT_EPOCH":"10369","BSTAR":"-0.00003902200000","RCS_SIZE":"LARGE","MEAN_ELEMENT_THEORY":"SGP4","TLE_LINE2":"2 45752  52.9991 273.3174 0002181  27.6456 332.4679 15.76707414103694","OBJECT_ID":"2020-038Y","TLE_LINE1":"1 45752U 20038Y   22092.74445649 -.00007034  00000-0 -39022-4 0  9990","PERIAPSIS":"338.314","PERIOD":"91.330","OBJECT_NAME":"STARLINK-1469","EPHEMERIS_TYPE":"0","MEAN_MOTION":"15.76707414","ECCENTRICITY":"0.00021810","DECAY_DATE":null,"SEMIMAJOR_AXIS":"6717.914"},{"TLE_LINE1":"1 45753U 20038Z   22092.56918621 -.00004840  00000-0 -30632-3 0  9995","OBJECT_ID":"2020-038Z","PERIAPSIS":"546.155","PERIOD":"95.593","OBJECT_NAME":"STARLINK-1476","EPHEMERIS_TYPE":"0","MEAN_MOTION":"15.06389415","SEMIMAJOR_AXIS":"6925.381","ECCENTRICITY":"0.00015760","DECAY_DATE":null,"TIME_SYSTEM":"UTC","MEAN_MOTION_DDOT":"0.0000000000000","RCS_SIZE":"LARGE","MEAN_ELEMENT_THEORY":"SGP4","BSTAR":"-0.00030632000000","TLE_LINE2":"2 45753  53.0542 188.1132 0001576  52.8220 307.2913 15.06389415 99877","REV_AT_EPOCH":"9987","ARG_OF_PERICENTER":"52.8220","OBJECT_TYPE":"PAYLOAD","MEAN_MOTION_DOT":"-0.00004840","EPOCH":"2022-04-02T13:39:37.688544","NORAD_CAT_ID":"45753","LAUNCH_DATE":"2020-06-13","COUNTRY_CODE":"US","INCLINATION":"53.0542","ELEMENT_SET_NO":"999","CENTER_NAME":"EARTH","GP_ID":"200321296","FILE":"3385473","REF_FRAME":"TEME","MEAN_ANOMALY":"307.2913","SITE":"AFETR","RA_OF_ASC_NODE":"188.1132","CLASSIFICATION_TYPE":"U","APOAPSIS":"548.337"},{"NORAD_CAT_ID":"45754","EPOCH":"2022-04-02T18:31:32.518560","MEAN_MOTION_DOT":"-0.00005992","ELEMENT_SET_NO":"999","COUNTRY_CODE":"US","INCLINATION":"53.0534","LAUNCH_DATE":"2020-06-13","OBJECT_TYPE":"PAYLOAD","ARG_OF_PERICENTER":"54.4418","SITE":"AFETR","MEAN_ANOMALY":"305.6738","REF_FRAME":"TEME","APOAPSIS":"548.505","CLASSIFICATION_TYPE":"U","RA_OF_ASC_NODE":"187.1929","GP_ID":"200320545","FILE":"3385473","CENTER_NAME":"EARTH","MEAN_MOTION":"15.06385535","EPHEMERIS_TYPE":"0","DECAY_DATE":null,"ECCENTRICITY":"0.00018010","SEMIMAJOR_AXIS":"6925.393","OBJECT_ID":"2020-038AA","TLE_LINE1":"1 45754U 20038AA  22092.77190415 -.00005992  00000-0 -38385-3 0  9994","OBJECT_NAME":"STARLINK-1477","PERIOD":"95.593","PERIAPSIS":"546.011","REV_AT_EPOCH":"9990","TLE_LINE2":"2 45754  53.0534 187.1929 0001801  54.4418 305.6738 15.06385535 99900","MEAN_ELEMENT_THEORY":"SGP4","RCS_SIZE":"LARGE","BSTAR":"-0.00038385000000","TIME_SYSTEM":"UTC","MEAN_MOTION_DDOT":"0.0000000000000"},{"TIME_SYSTEM":"UTC","MEAN_MOTION_DDOT":"0.0000000000000","REV_AT_EPOCH":"9985","BSTAR":"-0.00043485000000","RCS_SIZE":"LARGE","MEAN_ELEMENT_THEORY":"SGP4","TLE_LINE2":"2 45755  53.0544 188.3101 0001302  71.7203 288.3927 15.06392423 99852","OBJECT_ID":"2020-038AB","TLE_LINE1":"1 45755U 20038AB  22092.52494824 -.00006751  00000-0 -43485-3 0  9990","PERIAPSIS":"546.335","PERIOD":"95.593","OBJECT_NAME":"STARLINK-1478","EPHEMERIS_TYPE":"0","MEAN_MOTION":"15.06392423","ECCENTRICITY":"0.00013020","DECAY_DATE":null,"SEMIMAJOR_AXIS":"6925.372","GP_ID":"200320795","FILE":"3385473","CENTER_NAME":"EARTH","SITE":"AFETR","MEAN_ANOMALY":"288.3927","REF_FRAME":"TEME","APOAPSIS":"548.138","RA_OF_ASC_NODE":"188.3101","CLASSIFICATION_TYPE":"U","OBJECT_TYPE":"PAYLOAD","ARG_OF_PERICENTER":"71.7203","NORAD_CAT_ID":"45755","MEAN_MOTION_DOT":"-0.00006751","EPOCH":"2022-04-02T12:35:55.527936","COUNTRY_CODE":"US","INCLINATION":"53.0544","ELEMENT_SET_NO":"999","LAUNCH_DATE":"2020-06-13"},{"MEAN_MOTION":"15.06404510","EPHEMERIS_TYPE":"0","SEMIMAJOR_AXIS":"6925.335","DECAY_DATE":null,"ECCENTRICITY":"0.00016860","TLE_LINE1":"1 45756U 20038AC  22092.78664991  .00017471  00000-0  11887-2 0  9992","OBJECT_ID":"2020-038AC","OBJECT_NAME":"STARLINK-1484","PERIOD":"95.592","PERIAPSIS":"546.032","TLE_LINE2":"2 45756  53.0536 187.1333 0001686  59.7117 300.4038 15.06404510 99897","BSTAR":"0.00118870000000","RCS_SIZE":"LARGE","MEAN_ELEMENT_THEORY":"SGP4","REV_AT_EPOCH":"9989","TIME_SYSTEM":"UTC","MEAN_MOTION_DDOT":"0.0000000000000","EPOCH":"2022-04-02T18:52:46.552224","MEAN_MOTION_DOT":"0.00017471","NORAD_CAT_ID":"45756","LAUNCH_DATE":"2020-06-13","ELEMENT_SET_NO":"999","INCLINATION":"53.0536","COUNTRY_CODE":"US","ARG_OF_PERICENTER":"59.7117","OBJECT_TYPE":"PAYLOAD","REF_FRAME":"TEME","MEAN_ANOMALY":"300.4038","SITE":"AFETR","CLASSIFICATION_TYPE":"U","RA_OF_ASC_NODE":"187.1333","APOAPSIS":"548.367","CENTER_NAME":"EARTH","FILE":"3385473","GP_ID":"200321046"},{"CENTER_NAME":"EARTH","GP_ID":"200321797","FILE":"3385473","RA_OF_ASC_NODE":"187.3449","CLASSIFICATION_TYPE":"U","APOAPSIS":"548.319","MEAN_ANOMALY":"303.7743","REF_FRAME":"TEME","SITE":"AFETR","ARG_OF_PERICENTER":"56.3398","OBJECT_TYPE":"PAYLOAD","LAUNCH_DATE":"2020-06-13","INCLINATION":"53.0541","COUNTRY_CODE":"US","ELEMENT_SET_NO":"999","MEAN_MOTION_DOT":"0.00001690","EPOCH":"2022-04-02T17:43:47.771904","NORAD_CAT_ID":"45757","MEAN_MOTION_DDOT":"0.0000000000000","TIME_SYSTEM":"UTC","MEAN_ELEMENT_THEORY":"SGP4","RCS_SIZE":"LARGE","BSTAR":"0.00013234000000","TLE_LINE2":"2 45757  53.0541 187.3449 0001601  56.3398 303.7743 15.06401032 99889","REV_AT_EPOCH":"9988","PERIAPSIS":"546.102","PERIOD":"95.592","OBJECT_NAME":"STARLINK-1486","TLE_LINE1":"1 45757U 20038AD  22092.73874736  .00001690  00000-0  13234-3 0  9993","OBJECT_ID":"2020-038AD","SEMIMAJOR_AXIS":"6925.345","ECCENTRICITY":"0.00016010","DECAY_DATE":null,"EPHEMERIS_TYPE":"0","MEAN_MOTION":"15.06401032"}];
